[{"OBJECT_NAME":"STARLINK-36852","OBJECT_ID":"2026-037B","EPOCH":"2026-03-18T06:00:02.000160","MEAN_MOTION":15.63525043,"ECCENTRICITY":0.00015016,"INCLINATION":42.9994,"RA_OF_ASC_NODE":146.4746,"ARG_OF_PERICENTER":268.8994,"MEAN_ANOMALY":72.8138,"EPHEMERIS_TYPE":0,"CLASSIFICATION_TYPE":"U","NORAD_CAT_ID":67933,"ELEMENT_SET_NO":999,"REV_AT_EPOCH":457,"BSTAR":-0.022587968,"MEAN_MOTION_DOT":-0.01904428,"MEAN_MOTION_DDOT":0},{"OBJECT_NAME":"STARLINK-36861","OBJECT_ID":"2026-037C","EPOCH":"2026-03-17T05:11:58.458912","MEAN_MOTION":15.81347431,"ECCENTRICITY":0.00015392,"INCLINATION":42.998,"RA_OF_ASC_NODE":152.4288,"ARG_OF_PERICENTER":274.3291,"MEAN_ANOMALY":85.7405,"EPHEMERIS_TYPE":0,"CLASSIFICATION_TYPE":"U","NORAD_CAT_ID":67934,"ELEMENT_SET_NO":999,"REV_AT_EPOCH":444,"BSTAR":-0.0030934846,"MEAN_MOTION_DOT":-0.00590592,"MEAN_MOTION_DDOT":0},{"OBJECT_NAME":"STARLINK-36860","OBJECT_ID":"2026-037D","EPOCH":"2026-03-18T06:00:02.000160","MEAN_MOTION":15.69096957,"ECCENTRICITY":0.00012059,"INCLINATION":42.999,"RA_OF_ASC_NODE":146.2651,"ARG_OF_PERICENTER":280.7673,"MEAN_ANOMALY":144.653,"EPHEMERIS_TYPE":0,"CLASSIFICATION_TYPE":"U","NORAD_CAT_ID":67935,"ELEMENT_SET_NO":999,"REV_AT_EPOCH":457,"BSTAR":-0.018370107,"MEAN_MOTION_DOT":-0.0193941,"MEAN_MOTION_DDOT":0},{"OBJECT_NAME":"STARLINK-36848","OBJECT_ID":"2026-037E","EPOCH":"2026-03-18T06:00:02.000160","MEAN_MOTION":15.66603192,"ECCENTRICITY":0.00014284,"INCLINATION":42.9996,"RA_OF_ASC_NODE":146.3191,"ARG_OF_PERICENTER":276.7135,"MEAN_ANOMALY":127.0045,"EPHEMERIS_TYPE":0,"CLASSIFICATION_TYPE":"U","NORAD_CAT_ID":67936,"ELEMENT_SET_NO":999,"REV_AT_EPOCH":457,"BSTAR":-0.020018645,"MEAN_MOTION_DOT":-0.01910301,"MEAN_MOTION_DDOT":0},{"OBJECT_NAME":"STARLINK-36370","OBJECT_ID":"2026-037F","EPOCH":"2026-03-18T06:00:02.000160","MEAN_MOTION":15.69988112,"ECCENTRICITY":0.00014841,"INCLINATION":42.9991,"RA_OF_ASC_NODE":146.2318,"ARG_OF_PERICENTER":281.0585,"MEAN_ANOMALY":158.1534,"EPHEMERIS_TYPE":0,"CLASSIFICATION_TYPE":"U","NORAD_CAT_ID":67937,"ELEMENT_SET_NO":999,"REV_AT_EPOCH":457,"BSTAR":-0.017846873,"MEAN_MOTION_DOT":-0.01954275,"MEAN_MOTION_DDOT":0},{"OBJECT_NAME":"STARLINK-36371","OBJECT_ID":"2026-037G","EPOCH":"2026-03-18T06:00:02.000160","MEAN_MOTION":15.7388141,"ECCENTRICITY":0.00010725,"INCLINATION":42.9991,"RA_OF_ASC_NODE":146.1243,"ARG_OF_PERICENTER":283.4578,"MEAN_ANOMALY":198.1387,"EPHEMERIS_TYPE":0,"CLASSIFICATION_TYPE":"U","NORAD_CAT_ID":67938,"ELEMENT_SET_NO":999,"REV_AT_EPOCH":457,"BSTAR":-0.015136992,"MEAN_MOTION_DOT":-0.01918428,"MEAN_MOTION_DDOT":0},{"OBJECT_NAME":"STARLINK-36246","OBJECT_ID":"2026-037H","EPOCH":"2026-03-18T06:00:02.000160","MEAN_MOTION":15.67414329,"ECCENTRICITY":0.00013955,"INCLINATION":42.9993,"RA_OF_ASC_NODE":146.2724,"ARG_OF_PERICENTER":280.4841,"MEAN_ANOMALY":142.1898,"EPHEMERIS_TYPE":0,"CLASSIFICATION_TYPE":"U","NORAD_CAT_ID":67939,"ELEMENT_SET_NO":999,"REV_AT_EPOCH":448,"BSTAR":-0.01946274,"MEAN_MOTION_DOT":-0.01918977,"MEAN_MOTION_DDOT":0},{"OBJECT_NAME":"STARLINK-36907","OBJECT_ID":"2026-037J","EPOCH":"2026-03-17T21:43:19.605792","MEAN_MOTION":15.81976946,"ECCENTRICITY":0.0002089,"INCLINATION":42.9984,"RA_OF_ASC_NODE":148.1227,"ARG_OF_PERICENTER":303.2284,"MEAN_ANOMALY":56.8387,"EPHEMERIS_TYPE":0,"CLASSIFICATION_TYPE":"U","NORAD_CAT_ID":67940,"ELEMENT_SET_NO":999,"REV_AT_EPOCH":455,"BSTAR":0.0021716678,"MEAN_MOTION_DOT":0.00482279,"MEAN_MOTION_DDOT":0},{"OBJECT_NAME":"STARLINK-36927","OBJECT_ID":"2026-037K","EPOCH":"2026-03-18T06:00:02.000160","MEAN_MOTION":15.76003639,"ECCENTRICITY":9.147e-5,"INCLINATION":42.9989,"RA_OF_ASC_NODE":146.0275,"ARG_OF_PERICENTER":270.6712,"MEAN_ANOMALY":249.5245,"EPHEMERIS_TYPE":0,"CLASSIFICATION_TYPE":"U","NORAD_CAT_ID":67941,"ELEMENT_SET_NO":999,"REV_AT_EPOCH":457,"BSTAR":-0.013791653,"MEAN_MOTION_DOT":-0.01919555,"MEAN_MOTION_DDOT":0},{"OBJECT_NAME":"STARLINK-36914","OBJECT_ID":"2026-037L","EPOCH":"2026-03-18T05:19:57.727488","MEAN_MOTION":15.82166214,"ECCENTRICITY":0.00013711,"INCLINATION":42.9979,"RA_OF_ASC_NODE":146.2001,"ARG_OF_PERICENTER":261.7124,"MEAN_ANOMALY":98.3593,"EPHEMERIS_TYPE":0,"CLASSIFICATION_TYPE":"U","NORAD_CAT_ID":67942,"ELEMENT_SET_NO":999,"REV_AT_EPOCH":460,"BSTAR":0.0023497716,"MEAN_MOTION_DOT":0.00529455,"MEAN_MOTION_DDOT":0},{"OBJECT_NAME":"STARLINK-36851","OBJECT_ID":"2026-037M","EPOCH":"2026-03-18T06:00:02.000160","MEAN_MOTION":15.76991365,"ECCENTRICITY":0.00011699,"INCLINATION":42.999,"RA_OF_ASC_NODE":146.0479,"ARG_OF_PERICENTER":273.0339,"MEAN_ANOMALY":239.053,"EPHEMERIS_TYPE":0,"CLASSIFICATION_TYPE":"U","NORAD_CAT_ID":67943,"ELEMENT_SET_NO":999,"REV_AT_EPOCH":457,"BSTAR":-0.013203371,"MEAN_MOTION_DOT":-0.01921004,"MEAN_MOTION_DDOT":0},{"OBJECT_NAME":"STARLINK-36892","OBJECT_ID":"2026-037N","EPOCH":"2026-03-18T06:00:02.000160","MEAN_MOTION":15.77797376,"ECCENTRICITY":9.982e-5,"INCLINATION":42.9988,"RA_OF_ASC_NODE":146.0191,"ARG_OF_PERICENTER":267.5318,"MEAN_ANOMALY":256.3152,"EPHEMERIS_TYPE":0,"CLASSIFICATION_TYPE":"U","NORAD_CAT_ID":67944,"ELEMENT_SET_NO":999,"REV_AT_EPOCH":457,"BSTAR":-0.012759184,"MEAN_MOTION_DOT":-0.01924614,"MEAN_MOTION_DDOT":0},{"OBJECT_NAME":"STARLINK-36908","OBJECT_ID":"2026-037P","EPOCH":"2026-03-17T21:40:10.477056","MEAN_MOTION":15.81758378,"ECCENTRICITY":0.00013393,"INCLINATION":42.9985,"RA_OF_ASC_NODE":148.1053,"ARG_OF_PERICENTER":333.9537,"MEAN_ANOMALY":26.1268,"EPHEMERIS_TYPE":0,"CLASSIFICATION_TYPE":"U","NORAD_CAT_ID":67945,"ELEMENT_SET_NO":999,"REV_AT_EPOCH":455,"BSTAR":0.0020122771,"MEAN_MOTION_DOT":0.0044015,"MEAN_MOTION_DDOT":0},{"OBJECT_NAME":"STARLINK-36909","OBJECT_ID":"2026-037Q","EPOCH":"2026-03-17T21:38:56.012352","MEAN_MOTION":15.82194587,"ECCENTRICITY":0.00019028,"INCLINATION":42.9983,"RA_OF_ASC_NODE":148.0978,"ARG_OF_PERICENTER":292.0212,"MEAN_ANOMALY":68.0457,"EPHEMERIS_TYPE":0,"CLASSIFICATION_TYPE":"U","NORAD_CAT_ID":67946,"ELEMENT_SET_NO":999,"REV_AT_EPOCH":455,"BSTAR":0.0023294448,"MEAN_MOTION_DOT":0.00525285,"MEAN_MOTION_DDOT":0},{"OBJECT_NAME":"STARLINK-36920","OBJECT_ID":"2026-037R","EPOCH":"2026-03-17T21:42:43.289280","MEAN_MOTION":15.78600315,"ECCENTRICITY":0.00147864,"INCLINATION":42.9989,"RA_OF_ASC_NODE":148.1192,"ARG_OF_PERICENTER":343.1783,"MEAN_ANOMALY":16.8596,"EPHEMERIS_TYPE":0,"CLASSIFICATION_TYPE":"U","NORAD_CAT_ID":67947,"ELEMENT_SET_NO":999,"REV_AT_EPOCH":455,"BSTAR":0.0016749596,"MEAN_MOTION_DOT":0.00314164,"MEAN_MOTION_DDOT":0},{"OBJECT_NAME":"STARLINK-36873","OBJECT_ID":"2026-037S","EPOCH":"2026-03-18T06:00:02.000160","MEAN_MOTION":15.72696721,"ECCENTRICITY":9.673e-5,"INCLINATION":42.9992,"RA_OF_ASC_NODE":146.0389,"ARG_OF_PERICENTER":273.7545,"MEAN_ANOMALY":241.6735,"EPHEMERIS_TYPE":0,"CLASSIFICATION_TYPE":"U","NORAD_CAT_ID":67948,"ELEMENT_SET_NO":999,"REV_AT_EPOCH":457,"BSTAR":-0.015891945,"MEAN_MOTION_DOT":-0.01953125,"MEAN_MOTION_DDOT":0}]
